{
    "links": {
        "self": "http://www.neowsapp.com/rest/v1/neo/3564021?api_key=iIulBulltgU6a56xZRHN4H3l9WmuAYTsLGpBGhQ2"
    },
    "id": "3564021",
    "neo_reference_id": "3564021",
    "name": "(2011 HR4)",
    "designation": "2011 HR4",
    "nasa_jpl_url": "http://ssd.jpl.nasa.gov/sbdb.cgi?sstr=3564021",
    "absolute_magnitude_h": 24.5,
    "estimated_diameter": {
        "kilometers": {
            "estimated_diameter_min": 0.0334622374,
            "estimated_diameter_max": 0.0748238376
        },
        "meters": {
            "estimated_diameter_min": 33.4622374455,
            "estimated_diameter_max": 74.8238376074
        },
        "miles": {
            "estimated_diameter_min": 0.0207924639,
            "estimated_diameter_max": 0.0464933628
        },
        "feet": {
            "estimated_diameter_min": 109.7842471007,
            "estimated_diameter_max": 245.4850393757
        }
    },
    "is_potentially_hazardous_asteroid": false,
    "close_approach_data": [
        {
            "close_approach_date": "1918-06-21",
            "close_approach_date_full": "1918-Jun-21 08:25",
            "epoch_date_close_approach": -1626190500000,
            "relative_velocity": {
                "kilometers_per_second": "10.3082779145",
                "kilometers_per_hour": "37109.8004921068",
                "miles_per_hour": "23058.5868668871"
            },
            "miss_distance": {
                "astronomical": "0.1147724233",
                "lunar": "44.6464726637",
                "kilometers": "17169710.060418371",
                "miles": "10668763.1144246798"
            },
            "orbiting_body": "Venus"
        },
        {
            "close_approach_date": "2011-04-26",
            "close_approach_date_full": "2011-Apr-26 13:20",
            "epoch_date_close_approach": 1303824000000,
            "relative_velocity": {
                "kilometers_per_second": "6.0113368029",
                "kilometers_per_hour": "21640.8124905336",
                "miles_per_hour": "13446.7592944651"
            },
            "miss_distance": {
                "astronomical": "0.1162237818",
                "lunar": "45.2110511202",
                "kilometers": "17386830.200624766",
                "miles": "10803675.3135871308"
            },
            "orbiting_body": "Earth"
        },
        {
            "close_approach_date": "2053-06-09",
            "close_approach_date_full": "2053-Jun-09 09:17",
            "epoch_date_close_approach": 2633073420000,
            "relative_velocity": {
                "kilometers_per_second": "14.4870573045",
                "kilometers_per_hour": "52153.406296214",
                "miles_per_hour": "32406.0984844448"
            },
            "miss_distance": {
                "astronomical": "0.2932489422",
                "lunar": "114.0738385158",
                "kilometers": "43869417.132873114",
                "miles": "27259191.7808484132"
            },
            "orbiting_body": "Earth"
        }
    ],
    "orbital_data": {
        "orbit_id": "5",
        "orbit_determination_date": "2017-04-06 08:53:38",
        "first_observation_date": "2011-04-26",
        "last_observation_date": "2011-04-27",
        "data_arc_in_days": 1,
        "observations_used": 10,
        "orbit_uncertainty": "9",
        "minimum_orbit_intersection": ".0785407",
        "jupiter_tisserand_invariant": "6.505",
        "epoch_osculation": "2455678.5",
        "eccentricity": ".2235512049059142",
        "semi_major_axis": ".9135907048708451",
        "inclination": "7.906770139943996",
        "ascending_node_longitude": "47.57498262880031",
        "orbital_period": "318.9524447251479",
        "perihelion_distance": ".7093564020061243",
        "perihelion_argument": "350.9005515014264",
        "aphelion_distance": "1.117825007735566",
        "perihelion_time": "2455523.333427984157",
        "mean_anomaly": "175.1357196018356",
        "mean_motion": "1.128694907199172",
        "equinox": "J2000",
        "orbit_class": {
            "orbit_class_type": "ATE",
            "orbit_class_description": "Near-Earth asteroid orbits similar to that of 2062 Aten",
            "orbit_class_range": "a (semi-major axis) < 1.0 AU; q (perihelion) > 0.983 AU"
        }
    },
    "is_sentry_object": false
}